*******************************************************************************
JPL/HORIZONS               2320 Blarney (1979 QJ)          2023-Sep-04 11:17:15
Rec #:    2320 (+COV) Soln.date: 2023-Aug-22_19:42:45   # obs: 4760 (1942-2023)
 
IAU76/J2000 helio. ecliptic osc. elements (au, days, deg., period=Julian yrs):
 
  EPOCH=  2457572.5 ! 2016-Jul-03.00 (TDB)         Residual RMS= .26268
   EC= .1309162947482671   QR= 2.753703861903746   TP= 2458560.39702232
   OM= 118.1471511313114   W=  260.7202216985419   IN= 11.48702962308987
   A= 3.168513970821863    MA= 187.36362398491     ADIST= 3.583324079739981
   PER= 5.64016            N= .174751388           ANGMOM= .030356751
   DAN= 3.18137            DDN= 3.04982            L= 18.6810972
   B= -11.3346891          MOID= 1.78355002        TP= 2019-Mar-17.8970223200
 
Asteroid physical parameters (km, seconds, rotational period in hours):
   GM= n.a.                RAD= 17.8695            ROTPER= 5.98689
   H= 10.66                G= .150                 B-V= n.a.
                           ALBEDO= .096            STYP= n.a.

ASTEROID comments: 
1: soln ref.= JPL#86, OCC=0
2: source=ORB
*******************************************************************************


*******************************************************************************
Ephemeris / API_USER Mon Sep  4 11:17:15 2023 Pasadena, USA      / Horizons
*******************************************************************************
Target body name: 2320 Blarney (1979 QJ)          {source: JPL#86}
Center body name: Solar System Barycenter (0)     {source: DE441}
Center-site name: BODY CENTER
*******************************************************************************
Start time      : A.D. 2023-Aug-12 00:00:00.0000 TDB
Stop  time      : A.D. 2023-Aug-13 00:00:00.0000 TDB
Step-size       : 2880 minutes
*******************************************************************************
Center geodetic : 0.0, 0.0, 0.0                   {E-lon(deg),Lat(deg),Alt(km)}
Center cylindric: 0.0, 0.0, 0.0                   {E-lon(deg),Dxy(km),Dz(km)}
Center radii    : (undefined)
Small perturbers: Yes                             {source: SB441-N16}
Output units    : KM-S
Calendar mode   : Mixed Julian/Gregorian
Output type     : GEOMETRIC cartesian states
Output format   : 2 (position and velocity)
Reference frame : Ecliptic of J2000.0
*******************************************************************************
Initial IAU76/J2000 heliocentric ecliptic osculating elements (au, days, deg.):
  EPOCH=  2457572.5 ! 2016-Jul-03.00 (TDB)         Residual RMS= .26268        
   EC= .1309162947482671   QR= 2.753703861903746   TP= 2458560.39702232        
   OM= 118.1471511313114   W=  260.7202216985419   IN= 11.48702962308987       
  Equivalent ICRF heliocentric cartesian coordinates (au, au/d):
   X=-3.193105953858845E+00  Y=-1.618528653683918E+00  Z= 7.397985349361808E-02
  VX= 3.648850101293781E-03 VY=-7.053487556930900E-03 VZ=-2.971015570948040E-03
Asteroid physical parameters (km, seconds, rotational period in hours):        
   GM= n.a.                RAD= 17.8695            ROTPER= 5.98689             
   H= 10.66                G= .150                 B-V= n.a.                   
                           ALBEDO= .096            STYP= n.a.                  
*******************************************************************************
JDTDB
   X     Y     Z
   VX    VY    VZ
*******************************************************************************
$$SOE
2460168.500000000 = A.D. 2023-Aug-12 00:00:00.0000 TDB 
 X = 1.224717351705306E+08 Y =-4.527102175403961E+08 Z = 2.109852881402215E+07
 VX= 1.527769312351602E+01 VY= 6.346437215927678E+00 VZ=-3.348371934067463E+00
$$EOE
*******************************************************************************
 
TIME

  Barycentric Dynamical Time ("TDB" or T_eph) output was requested. This
continuous coordinate time is equivalent to the relativistic proper time
of a clock at rest in a reference frame co-moving with the solar system
barycenter but outside the system's gravity well. It is the independent
variable in the solar system relativistic equations of motion.

  TDB runs at a uniform rate of one SI second per second and is independent
of irregularities in Earth's rotation.
 
CALENDAR SYSTEM

  Mixed calendar mode was active such that calendar dates after AD 1582-Oct-15
(if any) are in the modern Gregorian system. Dates prior to 1582-Oct-5 (if any)
are in the Julian calendar system, which is automatically extended for dates
prior to its adoption on 45-Jan-1 BC.  The Julian calendar is useful for
matching historical dates. The Gregorian calendar more accurately corresponds
to the Earth's orbital motion and seasons. A "Gregorian-only" calendar mode is
available if such physical events are the primary interest.

REFERENCE FRAME AND COORDINATES

  Ecliptic at the standard reference epoch

    Reference epoch: J2000.0
    X-Y plane: adopted Earth orbital plane at the reference epoch
               Note: IAU76 obliquity of 84381.448 arcseconds wrt ICRF X-Y plane
    X-axis   : ICRF
    Z-axis   : perpendicular to the X-Y plane in the directional (+ or -) sense
               of Earth's north pole at the reference epoch.

  Symbol meaning:

    JDTDB    Julian Day Number, Barycentric Dynamical Time
      X      X-component of position vector (km)
      Y      Y-component of position vector (km)
      Z      Z-component of position vector (km)
      VX     X-component of velocity vector (km/sec)                           
      VY     Y-component of velocity vector (km/sec)                           
      VZ     Z-component of velocity vector (km/sec)                           

ABERRATIONS AND CORRECTIONS

 Geometric state vectors have NO corrections or aberrations applied.

Computations by ...

    Solar System Dynamics Group, Horizons On-Line Ephemeris System
    4800 Oak Grove Drive, Jet Propulsion Laboratory
    Pasadena, CA  91109   USA

    General site: https://ssd.jpl.nasa.gov/
    Mailing list: https://ssd.jpl.nasa.gov/email_list.html
    System news : https://ssd.jpl.nasa.gov/horizons/news.html
    User Guide  : https://ssd.jpl.nasa.gov/horizons/manual.html
    Connect     : browser        https://ssd.jpl.nasa.gov/horizons/app.html#/x
                  API            https://ssd-api.jpl.nasa.gov/doc/horizons.html
                  command-line   telnet ssd.jpl.nasa.gov 6775
                  e-mail/batch   https://ssd.jpl.nasa.gov/ftp/ssd/hrzn_batch.txt
                  scripts        https://ssd.jpl.nasa.gov/ftp/ssd/SCRIPTS
    Author      : Jon.D.Giorgini@jpl.nasa.gov
*******************************************************************************
